[{"OBJECT_NAME":"STARLINK-30327","OBJECT_ID":"2023-129K","EPOCH":"2026-03-09T12:25:28.993152","MEAN_MOTION":15.26626807,"ECCENTRICITY":0.00230309,"INCLINATION":42.9974,"RA_OF_ASC_NODE":85.9834,"ARG_OF_PERICENTER":70.832,"MEAN_ANOMALY":289.5022,"EPHEMERIS_TYPE":0,"CLASSIFICATION_TYPE":"U","NORAD_CAT_ID":57707,"ELEMENT_SET_NO":999,"REV_AT_EPOCH":14090,"BSTAR":0.00029313824,"MEAN_MOTION_DOT":7.635e-5,"MEAN_MOTION_DDOT":0},{"OBJECT_NAME":"STARLINK-33568","OBJECT_ID":"2025-015X","EPOCH":"2026-03-09T23:11:41.671392","MEAN_MOTION":15.30221638,"ECCENTRICITY":0.00011548,"INCLINATION":53.162,"RA_OF_ASC_NODE":321.1628,"ARG_OF_PERICENTER":73.7147,"MEAN_ANOMALY":286.3981,"EPHEMERIS_TYPE":0,"CLASSIFICATION_TYPE":"U","NORAD_CAT_ID":62779,"ELEMENT_SET_NO":999,"REV_AT_EPOCH":6436,"BSTAR":0.0011161631,"MEAN_MOTION_DOT":0.00032867,"MEAN_MOTION_DDOT":0}]
